OBJECT_NAME,OBJECT_ID,EPOCH,MEAN_MOTION,ECCENTRICITY,INCLINATION,RA_OF_ASC_NODE,ARG_OF_PERICENTER,MEAN_ANOMALY,EPHEMERIS_TYPE,CLASSIFICATION_TYPE,NORAD_CAT_ID,ELEMENT_SET_NO,REV_AT_EPOCH,BSTAR,MEAN_MOTION_DOT,MEAN_MOTION_DDOT
2022-023F,2022-023F,2026-07-20T19:24:56.304864,15.17897841,.01336606,63.4458,159.1870,341.6130,18.0174,0,U,51951,999,24281,.26614997E-3,.6598E-4,0
CZ-4C R/B,2022-027B,2026-07-21T06:56:48.108480,13.65481635,.02354647,63.3951,328.1335,22.5323,338.5851,0,U,52085,999,21669,-.16367381E-4,-.112E-5,0
MERIDIAN 10,2022-030A,2026-07-20T20:46:50.324736,2.00608723,.67934427,62.6768,137.1560,272.8366,17.5930,0,U,52145,999,3170,0,.136E-5,0
OMNI-L1,2022-033A,2026-07-21T04:32:29.191200,14.82857831,.00058116,97.8386,280.7066,159.6097,200.5350,0,U,52157,999,23249,.15696759E-3,.1219E-4,0
ENMAP,2022-033C,2026-07-21T06:55:57.079776,14.74943376,.00012301,97.9781,284.0526,85.6236,274.5113,0,U,52159,999,23168,.28618812E-4,.142E-5,0
ARCSAT-1,2022-033E,2026-07-21T01:26:26.427840,15.54369464,.00062567,97.2745,294.8554,81.6290,278.5674,0,U,52161,999,24096,.14336401E-3,.9299E-4,0
GLOBAL-18,2022-034B,2026-07-20T23:33:06.935328,15.47393157,.00046408,52.9812,94.9867,40.1805,319.9543,0,U,52196,999,24219,.36667639E-3,.18686E-3,0
GAOFEN-3 03,2022-035A,2026-07-21T07:03:42.837120,14.42218500,.00018046,98.4075,210.3807,87.3435,272.7961,0,U,52200,999,22576,.18868958E-4,.19E-6,0
DAQI-1,2022-039A,2026-07-21T06:15:25.396704,14.57695087,.00044257,98.1484,140.4092,132.2544,227.9031,0,U,52257,999,22690,.78962024E-4,.315E-5,0
BRO-6,2022-047AE,2026-07-21T04:27:53.915616,15.52894881,.00029514,97.3380,293.9516,275.8933,84.1983,0,U,52422,999,23642,.58254663E-3,.36204E-3,0
JILIN-1 GAOFEN 3D27,2022-048B,2026-07-21T07:03:25.632288,15.84744666,.0005683,97.5719,319.5739,231.5284,128.5476,0,U,52444,999,23486,.74417115E-3,.17462E-2,0
JILIN-1 GAOFEN 3D28,2022-048C,2026-07-21T06:24:45.167616,15.90434184,.00057881,97.5670,319.8932,236.9456,123.1261,0,U,52445,999,23492,.80619427E-3,.244673E-2,.24089403E-4
VIGORIDE-3,2022-057AE,2026-07-21T05:11:58.920288,15.27587149,.00083663,97.6647,343.1089,14.9992,345.1493,0,U,52760,999,23035,.14547148E-3,.3848E-4,0
ION SCV-006,2022-057AF,2026-07-20T23:00:21.311136,15.46003568,.00162563,97.6140,352.2270,356.6185,3.4950,0,U,52761,999,23133,.17643078E-3,.8552E-4,0
SHERPA-AC1,2022-057AH,2026-07-21T03:03:31.321440,15.36682260,.00066665,97.6728,352.7875,341.7634,18.3369,0,U,52763,999,23091,.15171101E-3,.535E-4,0
OMNI-L2,2022-057AR,2026-07-21T03:57:44.946720,14.81446893,.00061933,97.4696,262.2383,198.8621,161.2365,0,U,52771,999,22542,.11170213E-3,.827E-5,0
STEP CUBE LAB-II,2022-065D,2026-07-21T06:09:24.437376,14.63347232,.00072351,98.2275,346.0617,280.3246,79.7140,0,U,52897,999,21648,.61403695E-4,.269E-5,0
RANDEV,2022-065E,2026-07-21T05:57:57.629088,14.63736420,.00065538,98.2261,346.4207,280.8629,79.1835,0,U,52898,999,21623,.75865466E-4,.347E-5,0
SNUGLITE-II,2022-065F,2026-07-21T04:41:38.063616,14.64401072,.00061376,98.2245,346.9744,277.9414,82.1092,0,U,52899,999,21597,.12829914E-3,.63E-5,0
MIMAN,2022-065G,2026-07-20T22:18:14.914656,14.61875004,.00062879,98.2305,344.2500,282.4382,77.6115,0,U,52900,999,21537,.67386295E-4,.289E-5,0
STARLINK-4362,2022-077A,2026-07-21T05:25:12.708192,15.05653438,.00015401,97.2866,19.3415,101.5196,258.6205,0,U,53043,999,22100,.3748762E-4,.485E-5,0
LARES-2,2022-080A,2026-07-18T18:51:23.050944,6.38965084,.00054794,70.1539,294.4914,328.1411,31.8962,0,U,53105,999,9368,0,-.2E-6,0
GREENCUBE (IO-117),2022-080E,2026-07-21T06:26:53.364480,6.42583331,.0009377,70.1384,286.3946,282.6707,77.2904,0,U,53109,999,9425,0,-.3E-7,0
STARLINK-4410,2022-084R,2026-07-21T06:00:02.999808,15.36979879,.00013199,97.5995,264.5681,88.6684,25.2300,0,U,53204,999,586,-.78413996E-3,-.28308E-3,0
COSMOS 2558,2022-089A,2026-07-20T20:40:50.068704,15.82905343,.0004329,97.2232,307.4901,220.3966,139.6983,0,U,53323,999,22314,.5961E-3,.127495E-2,0
TECMS,2022-090A,2026-07-21T07:04:32.359008,15.21259406,.00053289,97.3120,269.4336,70.2583,289.9227,0,U,53346,999,21999,.10832267E-3,.2353E-4,0
DONGPO 02,2022-098J,2026-07-21T00:44:36.067200,15.82400617,.00046627,97.5554,336.3686,203.1848,156.9210,0,U,53452,999,22013,.67544536E-3,.14138E-2,0
DONGPO 01,2022-098K,2026-07-21T06:26:44.829888,15.79213768,.00029471,97.5619,337.0435,197.9538,162.1625,0,U,53453,999,22012,.64533537E-3,.116395E-2,0
STARLINK-4400,2022-099D,2026-07-21T01:43:56.415072,15.05646149,.00018856,97.2847,319.2763,128.2065,231.9333,0,U,53468,999,21604,.12722825E-3,.178E-4,0
STARLINK-4621,2022-105AE,2026-07-21T03:23:36.038976,15.05656339,.00017429,97.2852,79.3587,96.7220,263.4206,0,U,53676,999,21331,.57074234E-4,.767E-5,0
