{"_default": { "268": {"norad_id": "52761", "name": "ION SCV-006", "tle1": "1 52761U 22057AF  26201.95857999  .00008552  00000-0  17643-3 0  9993", "tle2": "2 52761  97.6140 352.2270 0016256 356.6185   3.4950 15.46003568231336", "object_type": "PAYLOAD", "criticality_score": 7.0, "last_updated": "2026-07-21T16:42:32.471020+00:00", "maneuver_count": 0, "owner": "IT"}, "275": {"norad_id": "52763", "name": "SHERPA-AC1", "tle1": "1 52763U 22057AH  26202.12744585  .00005350  00000-0  15171-3 0  9998", "tle2": "2 52763  97.6728 352.7875 0006666 341.7634  18.3369 15.36682260230917", "object_type": "PAYLOAD", "criticality_score": 7.0, "last_updated": "2026-07-21T16:42:32.471020+00:00", "maneuver_count": 0, "owner": "US"}, "279": {"norad_id": "52771", "name": "OMNI-L2", "tle1": "1 52771U 22057AR  26202.16510355  .00000827  00000-0  11170-3 0  9996", "tle2": "2 52771  97.4696 262.2383 0006193 198.8621 161.2365 14.81446893225422", "object_type": "PAYLOAD", "criticality_score": 7.0, "last_updated": "2026-07-21T16:42:32.471020+00:00", "maneuver_count": 0, "owner": "US"}, "280": {"norad_id": "52422", "name": "BRO-6", "tle1": "1 52422U 22047AE  26202.18604069  .00036204  00000-0  58255-3 0  9999", "tle2": "2 52422  97.3380 293.9516 0002951 275.8933  84.1983 15.52894881236427", "object_type": "PAYLOAD", "criticality_score": 7.0, "last_updated": "2026-07-21T16:42:32.471020+00:00", "maneuver_count": 0, "owner": "FR"}, "296": {"norad_id": "52897", "name": "STEP CUBE LAB-II", "tle1": "1 52897U 22065D   26202.25653284  .00000269  00000-0  61404-4 0  9999", "tle2": "2 52897  98.2275 346.0617 0007235 280.3246  79.7140 14.63347232216489", "object_type": "PAYLOAD", "criticality_score": 7.0, "last_updated": "2026-07-21T16:42:32.471020+00:00", "maneuver_count": 0, "owner": "SKOR"}, "297": {"norad_id": "52898", "name": "RANDEV", "tle1": "1 52898U 22065E   26202.24858367  .00000347  00000-0  75865-4 0  9991", "tle2": "2 52898  98.2261 346.4207 0006554 280.8629  79.1835 14.63736420216236", "object_type": "PAYLOAD", "criticality_score": 7.0, "last_updated": "2026-07-21T16:42:32.471020+00:00", "maneuver_count": 0, "owner": "SKOR"}, "298": {"norad_id": "52899", "name": "SNUGLITE-II", "tle1": "1 52899U 22065F   26202.19557944  .00000630  00000-0  12830-3 0  9990", "tle2": "2 52899  98.2245 346.9744 0006138 277.9414  82.1092 14.64401072215979", "object_type": "PAYLOAD", "criticality_score": 7.0, "last_updated": "2026-07-21T16:42:32.471020+00:00", "maneuver_count": 0, "owner": "SKOR"}, "301": {"norad_id": "52900", "name": "MIMAN", "tle1": "1 52900U 22065G   26201.92933929  .00000289  00000-0  67386-4 0  9991", "tle2": "2 52900  98.2305 344.2500 0006288 282.4382  77.6115 14.61875004215377", "object_type": "PAYLOAD", "criticality_score": 7.0, "last_updated": "2026-07-21T16:42:32.471020+00:00", "maneuver_count": 0, "owner": "SKOR"}, "308": {"norad_id": "53109", "name": "AVUM R/B", "tle1": "1 53109U 22080E   26202.26867320 -.00000003  00000-0  00000-0 0  9990", "tle2": "2 53109  70.1384 286.3946 0009377 282.6707  77.2904  6.42583331 94253", "object_type": "ROCKET_BODY", "criticality_score": 3.0, "last_updated": "2026-07-21T16:42:32.471020+00:00", "maneuver_count": 0, "owner": "IT"}, "313": {"norad_id": "53105", "name": "LARES-2", "tle1": "1 53105U 22080A   26199.78568346 -.00000020  00000-0  00000-0 0  9993", "tle2": "2 53105  70.1539 294.4914 0005479 328.1411  31.8962  6.38965084 93683", "object_type": "PAYLOAD", "criticality_score": 7.0, "last_updated": "2026-07-21T16:42:32.471020+00:00", "maneuver_count": 0, "owner": "IT"}, "314": {"norad_id": "52760", "name": "VIGORIDE 3", "tle1": "1 52760U 22057AE  26202.21665417  .00003848  00000-0  14547-3 0  9997", "tle2": "2 52760  97.6647 343.1089 0008366  14.9992 345.1493 15.27587149230357", "object_type": "PAYLOAD", "criticality_score": 7.0, "last_updated": "2026-07-21T16:42:32.471020+00:00", "maneuver_count": 0, "owner": "US"}, "325": {"norad_id": "52157", "name": "OMNI-L1", "tle1": "1 52157U 22033A   26202.18922675  .00001219  00000-0  15697-3 0  9996", "tle2": "2 52157  97.8386 280.7066 0005812 159.6097 200.5350 14.82857831232497", "object_type": "PAYLOAD", "criticality_score": 7.0, "last_updated": "2026-07-21T16:42:32.471020+00:00", "maneuver_count": 0, "owner": "US"}, "329": {"norad_id": "53204", "name": "STARLINK-4410", "tle1": "1 53204U 22084R   26202.25003472 -.00028308  00000-0 -78414-3 0  9995", "tle2": "2 53204  97.5995 264.5681 0001320  88.6684  25.2300 15.36979879  5863", "object_type": "PAYLOAD", "criticality_score": 8.0, "last_updated": "2026-07-21T16:42:32.471020+00:00", "maneuver_count": 0, "owner": "US"}, "330": {"norad_id": "53468", "name": "STARLINK-4400", "tle1": "1 53468U 22099D   26202.07218073  .00001780  00000-0  12723-3 0  9992", "tle2": "2 53468  97.2847 319.2763 0001886 128.2065 231.9333 15.05646149216041", "object_type": "PAYLOAD", "criticality_score": 8.0, "last_updated": "2026-07-21T16:42:32.471020+00:00", "maneuver_count": 0, "owner": "US"}, "331": {"norad_id": "53676", "name": "STARLINK-4621", "tle1": "1 53676U 22105AE  26202.14138934  .00000767  00000-0  57074-4 0  9999", "tle2": "2 53676  97.2852  79.3587 0001743  96.7220 263.4206 15.05656339213318", "object_type": "PAYLOAD", "criticality_score": 8.0, "last_updated": "2026-07-21T16:42:32.471020+00:00", "maneuver_count": 0, "owner": "US"}, "332": {"norad_id": "53043", "name": "STARLINK-4362", "tle1": "1 53043U 22077A   26202.22584153  .00000485  00000-0  37488-4 0  9996", "tle2": "2 53043  97.2866  19.3415 0001540 101.5196 258.6205 15.05653438221004", "object_type": "PAYLOAD", "criticality_score": 8.0, "last_updated": "2026-07-21T16:42:32.471020+00:00", "maneuver_count": 0, "owner": "US"}, "402": {"norad_id": "52085", "name": "CZ-4C R/B", "tle1": "1 52085U 22027B   26202.28944570 -.00000112  00000-0 -16367-4 0  9997", "tle2": "2 52085  63.3951 328.1335 0235465  22.5323 338.5851 13.65481635216695", "object_type": "ROCKET_BODY", "criticality_score": 3.0, "last_updated": "2026-07-21T16:42:32.471020+00:00", "maneuver_count": 0, "owner": "PRC"}, "426": {"norad_id": "52161", "name": "ARCSAT-1", "tle1": "1 52161U 22033E   26202.06002810  .00009299  00000-0  14336-3 0  9993", "tle2": "2 52161  97.2745 294.8554 0006257  81.6290 278.5674 15.54369464240961", "object_type": "PAYLOAD", "criticality_score": 7.0, "last_updated": "2026-07-21T16:42:32.471020+00:00", "maneuver_count": 0, "owner": "NOR"}, "439": {"norad_id": "52196", "name": "GLOBAL-18", "tle1": "1 52196U 22034B   26201.98133027  .00018686  00000-0  36668-3 0  9999", "tle2": "2 52196  52.9812  94.9867 0004641  40.1805 319.9543 15.47393157242195", "object_type": "PAYLOAD", "criticality_score": 7.0, "last_updated": "2026-07-21T16:42:32.471020+00:00", "maneuver_count": 0, "owner": "US"}, "441": {"norad_id": "53346", "name": "OBJECT A", "tle1": "1 53346U 22090A   26202.29481897  .00002353  00000-0  10832-3 0  9994", "tle2": "2 53346  97.3120 269.4336 0005329  70.2583 289.9227 15.21259406219996", "object_type": "PAYLOAD", "criticality_score": 7.0, "last_updated": "2026-07-21T16:42:32.471020+00:00", "maneuver_count": 0, "owner": "PRC"}, "452": {"norad_id": "53452", "name": "OBJECT J", "tle1": "1 53452U 22098J   26202.03097300  .00141380  00000-0  67545-3 0  9991", "tle2": "2 53452  97.5554 336.3686 0004663 203.1848 156.9210 15.82400617220132", "object_type": "PAYLOAD", "criticality_score": 7.0, "last_updated": "2026-07-21T16:42:32.471020+00:00", "maneuver_count": 0, "owner": "PRC"}, "454": {"norad_id": "53453", "name": "OBJECT K", "tle1": "1 53453U 22098K   26202.26857442  .00116395  00000-0  64534-3 0  9991", "tle2": "2 53453  97.5619 337.0435 0002947 197.9538 162.1625 15.79213768220127", "object_type": "PAYLOAD", "criticality_score": 7.0, "last_updated": "2026-07-21T16:42:32.471020+00:00", "maneuver_count": 0, "owner": "PRC"}, "456": {"norad_id": "52445", "name": "JILIN-01 GAOFEN 3D 28", "tle1": "1 52445U 22048C   26202.26718944  .00244673  24089-4  80619-3 0  9999", "tle2": "2 52445  97.5670 319.8932 0005788 236.9456 123.1261 15.90434184234929", "object_type": "PAYLOAD", "criticality_score": 7.0, "last_updated": "2026-07-21T16:42:32.471020+00:00", "maneuver_count": 0, "owner": "PRC"}, "457": {"norad_id": "52444", "name": "JILIN-01 GAOFEN 3D 27", "tle1": "1 52444U 22048B   26202.29404667  .00174620  00000-0  74417-3 0  9991", "tle2": "2 52444  97.5719 319.5739 0005683 231.5284 128.5476 15.84744666234860", "object_type": "PAYLOAD", "criticality_score": 7.0, "last_updated": "2026-07-21T16:42:32.471020+00:00", "maneuver_count": 0, "owner": "PRC"}, "483": {"norad_id": "52159", "name": "ENMAP", "tle1": "1 52159U 22033C   26202.28885509  .00000142  00000-0  28619-4 0  9996", "tle2": "2 52159  97.9781 284.0526 0001230  85.6236 274.5113 14.74943376231689", "object_type": "PAYLOAD", "criticality_score": 7.0, "last_updated": "2026-07-21T16:42:32.471020+00:00", "maneuver_count": 0, "owner": "GER"}, "484": {"norad_id": "51951", "name": "OBJECT F", "tle1": "1 51951U 22023F   26201.80898501  .00006598  00000-0  26615-3 0  9991", "tle2": "2 51951  63.4458 159.1870 0133661 341.6130  18.0174 15.17897841242811", "object_type": "PAYLOAD", "criticality_score": 7.0, "last_updated": "2026-07-21T16:42:32.471020+00:00", "maneuver_count": 0, "owner": "PRC"}, "513": {"norad_id": "52257", "name": "DAQI 1", "tle1": "1 52257U 22039A   26202.26071061  .00000315  00000-0  78962-4 0  9997", "tle2": "2 52257  98.1484 140.4092 0004426 132.2544 227.9031 14.57695087226909", "object_type": "PAYLOAD", "criticality_score": 7.0, "last_updated": "2026-07-21T16:42:32.471020+00:00", "maneuver_count": 0, "owner": "PRC"}, "569": {"norad_id": "53323", "name": "COSMOS 2558", "tle1": "1 53323U 22089A   26201.86169061  .00127495  00000-0  59610-3 0  9997", "tle2": "2 53323  97.2232 307.4901 0004329 220.3966 139.6983 15.82905343223144", "object_type": "PAYLOAD", "criticality_score": 7.0, "last_updated": "2026-07-21T16:42:32.471020+00:00", "maneuver_count": 0, "owner": "CIS"}, "577": {"norad_id": "52200", "name": "GAOFEN 3 03", "tle1": "1 52200U 22035A   26202.29424580  .00000019  00000-0  18869-4 0  9993", "tle2": "2 52200  98.4075 210.3807 0001805  87.3435 272.7961 14.42218500225762", "object_type": "PAYLOAD", "criticality_score": 7.0, "last_updated": "2026-07-21T16:42:32.471020+00:00", "maneuver_count": 0, "owner": "PRC"}, "662": {"norad_id": "52145", "name": "MERIDIAN 10", "tle1": "1 52145U 22030A   26201.86586024  .00000136  00000-0  00000-0 0  9994", "tle2": "2 52145  62.6768 137.1560 6793443 272.8366  17.5930  2.00608723 31701", "object_type": "PAYLOAD", "criticality_score": 7.0, "last_updated": "2026-07-21T16:42:32.471020+00:00", "maneuver_count": 0, "owner": "CIS"}}}